Search.setIndex({docnames:["api/cysgp4.PyCoordGeodetic","api/cysgp4.PyCoordTopocentric","api/cysgp4.PyDateTime","api/cysgp4.PyEci","api/cysgp4.PyObserver","api/cysgp4.PyTle","api/cysgp4.Satellite","api/cysgp4.get_example_tles","api/cysgp4.propagate_many","api/cysgp4.propagate_many_slow","api/cysgp4.satellite_mean_motion","api/cysgp4.set_num_threads","api/cysgp4.test","api/cysgp4.tle_checksum","api/cysgp4.tle_linestrings_from_orbital_parameters","api/cysgp4.tle_tuples_from_text","api/cysgp4.tles_from_text","importing_cysgp4","index","install","license","quick_tour","user_manual"],envversion:{"sphinx.domains.c":1,"sphinx.domains.changeset":1,"sphinx.domains.citation":1,"sphinx.domains.cpp":1,"sphinx.domains.javascript":1,"sphinx.domains.math":2,"sphinx.domains.python":1,"sphinx.domains.rst":1,"sphinx.domains.std":1,"sphinx.ext.intersphinx":1,"sphinx.ext.todo":2,"sphinx.ext.viewcode":1,sphinx:56},filenames:["api/cysgp4.PyCoordGeodetic.rst","api/cysgp4.PyCoordTopocentric.rst","api/cysgp4.PyDateTime.rst","api/cysgp4.PyEci.rst","api/cysgp4.PyObserver.rst","api/cysgp4.PyTle.rst","api/cysgp4.Satellite.rst","api/cysgp4.get_example_tles.rst","api/cysgp4.propagate_many.rst","api/cysgp4.propagate_many_slow.rst","api/cysgp4.satellite_mean_motion.rst","api/cysgp4.set_num_threads.rst","api/cysgp4.test.rst","api/cysgp4.tle_checksum.rst","api/cysgp4.tle_linestrings_from_orbital_parameters.rst","api/cysgp4.tle_tuples_from_text.rst","api/cysgp4.tles_from_text.rst","importing_cysgp4.rst","index.rst","install.rst","license.rst","quick_tour.rst","user_manual.rst"],objects:{"cysgp4.PyCoordGeodetic":{alt:[0,1,1,""],ecef:[0,1,1,""],lat:[0,1,1,""],lon:[0,1,1,""]},"cysgp4.PyCoordTopocentric":{az:[1,1,1,""],dist:[1,1,1,""],dist_rate:[1,1,1,""],el:[1,1,1,""]},"cysgp4.PyDateTime":{datetime:[2,1,1,""],from_mjd:[2,2,1,""],from_ticks:[2,2,1,""],from_tle_epoch:[2,2,1,""],get_datetime_tuple:[2,2,1,""],gmst:[2,2,1,""],lmst:[2,2,1,""],mjd:[2,1,1,""],set:[2,2,1,""],ticks:[2,1,1,""],tle_epoch:[2,1,1,""]},"cysgp4.PyEci":{geo_loc:[3,1,1,""],loc:[3,1,1,""],pydt:[3,1,1,""],update:[3,2,1,""],vel:[3,1,1,""]},"cysgp4.PyObserver":{loc:[4,1,1,""]},"cysgp4.PyTle":{arg_perigee:[5,1,1,""],bstar:[5,1,1,""],catalog_number:[5,1,1,""],eccentricity:[5,1,1,""],epoch:[5,1,1,""],inclination:[5,1,1,""],int_designator:[5,1,1,""],mean_anomaly:[5,1,1,""],mean_motion:[5,1,1,""],mean_motion_dt2:[5,1,1,""],mean_motion_dt6:[5,1,1,""],raan:[5,1,1,""],rev_number:[5,1,1,""],tle_strings:[5,2,1,""]},"cysgp4.Satellite":{eci_pos:[6,2,1,""],geo_pos:[6,2,1,""],mjd:[6,1,1,""],pydt:[6,1,1,""],topo_pos:[6,2,1,""]},cysgp4:{PyCoordGeodetic:[0,0,1,""],PyCoordTopocentric:[1,0,1,""],PyDateTime:[2,0,1,""],PyEci:[3,0,1,""],PyObserver:[4,0,1,""],PyTle:[5,0,1,""],Satellite:[6,0,1,""],get_example_tles:[7,3,1,""],propagate_many:[8,3,1,""],propagate_many_slow:[9,3,1,""],satellite_mean_motion:[10,3,1,""],set_num_threads:[11,3,1,""],test:[12,3,1,""],tle_checksum:[13,3,1,""],tle_linestrings_from_orbital_parameters:[14,3,1,""],tle_tuples_from_text:[15,3,1,""],tles_from_text:[16,3,1,""]}},objnames:{"0":["py","class","Python class"],"1":["py","attribute","Python attribute"],"2":["py","method","Python method"],"3":["py","function","Python function"]},objtypes:{"0":"py:class","1":"py:attribute","2":"py:method","3":"py:function"},terms:{"00001u":14,"0000km":[1,22],"0186km":[6,21,22],"0300km":[1,22],"1000d":[1,22],"18015c":[7,15,22],"19822u":[7,15,22],"1st":22,"20001a":14,"20580u":[5,6,7,15,21,22],"2146d":[6,21,22],"2453d":[6,21,22],"25544u":13,"2749d":[6,21,22],"2nd":22,"3660km":[0,3,4,22],"3rd":22,"43194u":[7,15,22],"4885km":[6,21,22],"5087km":[6,21,22],"5250d":[0,3,4,22],"5300d":[1,22],"5509d":[6,21,22],"5683km":[6,21,22],"6844d":[6,21,22],"8446d":[6,21,22],"8837d":[3,22],"8838d":[0,4,22],"89016a":[7,15,22],"90037b":[5,6,7,15,21,22],"9195km":[6,21,22],"98067a":13,"boolean":[2,8],"case":[5,8,14,19,21,22],"class":[0,1,2,3,4,5,6,8,17],"default":[0,1,2,4,6,8,10,12],"export":19,"float":[0,1,2,4,8,10,14],"function":[8,14,17,18,19,21],"import":[0,1,2,3,4,5,6,7,8,10,13,14,15,16,18,19,21,22],"int":[2,5,11,12,13,22],"long":2,"new":[2,3,6,19,22],"return":[0,1,2,3,4,5,6,7,8,10,13,14,15,16,21],"throw":[6,8],"true":[2,8,9,12,13,21,22],"try":19,And:22,For:[2,6,8,21,22],One:[2,3,21,22],The:[0,1,3,4,6,7,8,12,14,18,19,20,21,22],Then:[17,19],There:[2,19,22],Use:[7,19],Used:19,Using:[17,21],With:[8,22],abl:22,about:19,abov:[19,22],absolut:12,accept:12,access:[0,1,2,3,4,17,19,22],actual:19,add:[12,22],addit:12,administr:19,affili:20,again:19,aka:[1,2,22],akebono:[7,15,16,22],all:[12,22],all_lin:[5,22],allow:[8,21,22],along:22,alreadi:19,also:[0,1,2,3,4,6,11,19,21],alt:[0,8,21,22],alt_km:[0,3,4,6,10,14,21,22],although:[5,22],altitud:[0,3,4,10,14,22],alwai:[1,4,6,8,19,22],amount:[6,22],analysi:12,ani:[12,19],anomali:[5,14,22],anoth:[6,21,22],apach:20,appar:[6,22],appli:[8,21,22],applic:22,approach:[19,21],arg:12,arg_perige:5,argument:[5,12,22],around:[0,1,2,3,4,5,22],arrai:[8,18,21,22],ascend:[5,14,22],ascens:[5,14],assum:[13,14],astronomi:2,astropi:[12,18,19,20],atmospher:22,attach:[4,22],attribut:[0,1,2,3,4,5,6],auto:12,avail:19,avoid:19,awar:19,axes:22,axi:22,az_deg:[1,22],azimuth:[1,2,22],ball:19,base:[0,1,2,3,4,5,6,20,22],basic:[19,22],batch:[6,8],becaus:[4,12,19,22],begin:[2,14,22],below:[19,22],benchmark:9,better:19,between:[1,2,22],bin:19,binari:19,bit:19,bodi:22,bool:[8,9,12],boost:[18,22],box:19,brandon:[18,22],brew:19,broadcast:[8,21,22],bsd:20,bstar:[5,22],build:[12,19],built:[19,21],bulk:22,bwinkel:19,cach:[6,22],calcul:[2,6,8,18,21],call:[6,12,22],can:[2,3,5,6,8,10,11,12,15,16,17,18,19,21,22],cartesian:[3,6,8,21,22],catalog:5,catalog_numb:5,caus:22,celestrak:[2,5,7,21,22],center:0,certain:[6,22],certainli:19,chang:[1,6,8,11,19,21,22],check:[12,13],checksum:13,chksum:13,choic:[4,19],choos:22,clang_osx:19,clangxx_osx:19,classmethod:2,claus:20,clone:19,cls:2,code:[18,19,20,22],coerce_to_nan:[6,8],com:[5,19,21,22],combin:22,comma:12,command:19,commun:18,compat:22,compil:19,complic:22,comput:[5,13,18,19,20,22],computation:2,conda:19,conjuct:[1,22],consid:19,consist:[14,15,21],construct:[0,1,2,3,4,6,22],constructor:[3,4,22],contain:[1,5,7,10,15,16,21,22],content:7,contrast:[18,22],control:[11,12],conveni:[2,12,22],convers:22,convert:[2,6,8,14,21,22],coordgeodet:0,coordin:[1,3,21,22],coordtopocentr:1,core:[8,12,18,22],correct:13,correspond:[2,5,22],could:19,cours:22,cpp:19,cppflag:19,cpu:[8,12],creat:[2,19,21,22],cse:[7,15,16,22],ctrak_scienc:[5,21,22],current:[2,6,19],cxx11:19,cxx:19,cysgp4:[0,1,2,3,4,5,6,7,8,9,10,11,12,13,14,15,16,20],cython:[18,20,22],dai:[2,5,10,14,22],daili:22,daniel:[18,20,22],data:12,date:[2,3,5,6,8,14,19,21,22],datetim:[1,2,3,4,6,14,22],ddt6:[5,22],decid:8,defin:[1,5,6,8,14,21,22],definit:[10,22],deg:[0,1,4,5,6,8,14],degre:[2,22],demonstr:[6,8,22],dep:19,depend:19,deriv:[2,5],describ:[5,22],descript:[14,22],design:[4,5,22],desir:[2,6,8,19,22],desper:19,determin:[8,21],develop:19,deviat:[6,8],diagnos:12,dict:8,dict_kei:21,dictionari:[8,21,22],differ:[6,8,19,21,22],digit:[2,5,13,14,22],dimens:[8,21],dimless:5,directli:22,directori:[12,19],disabl:12,dist:[1,8,21,22],dist_km:[1,22],dist_rat:[1,8,21],dist_rate_km:[1,22],dist_rate_km_per_:1,distanc:[1,22],distribut:19,divid:5,do_eci_po:[8,9,21,22],do_eci_vel:[8,9,21,22],do_geo:[8,9,21,22],do_topo:[8,9,21,22],docs_path:12,doctest:12,document:[0,1,2,3,4,5,6,12,19],doe:[19,22],done:[2,22],doubl:[0,1,2,4,6,8,10,14],download:[7,21,22],drag:[5,22],dt2:[5,22],each:[8,12,14,15,21,22],earth:[0,5,10,22],easi:19,easier:8,easiest:19,eccentr:[5,22],ecef:0,eci:[3,4,6,8,21,22],eci_po:[6,8,21,22],eci_vel:[8,21,22],either:[6,8,19],el_deg:[1,22],element:[5,14,18,20,21,22],elev:[1,2,22],ellipsoid:22,encapsul:22,entri:[7,15,16,22],environ:[8,11,19],epoch:[2,5,6,8,14,22],error:[6,8,19],errorbar:5,especi:[5,19,22],etc:22,even:19,everyth:8,exact:22,exampl:[0,1,2,3,4,5,6,7,8,10,13,14,15,16,21,22],excel:18,exist:22,exo:[7,15,16,22],extra:12,extract:19,fail:12,failur:[12,19],fals:[8,21,22],famou:22,fast:[21,22],faster:8,feed:22,few:22,field:[10,22],file:[7,10,12,15,16,19,21,22],first:[2,5,8,14,21,22],fit:[10,12],fix:[0,4,22],flag:19,follow:[2,6,8,14,19,21,22],forg:19,form:[3,22],format:[2,14,22],former:21,formula:10,fraction:[2,14,22],frame:[0,2,8,21,22],free:22,from:[0,1,2,3,4,5,6,7,8,12,14,18,20,21,22],from_mjd:[2,3,6,21,22],from_tick:[2,22],from_tle_epoch:2,fulli:[19,21],function_nam:17,further:8,furthermor:[6,22],gbyte:19,gener:14,geo:[0,3,6,8,21,22],geo_loc:3,geo_po:[6,21,22],geodet:[6,8,21,22],geograph:[0,1,2,3,4,6,8,21,22],geoid:22,get:[5,19,21,22],get_datetime_tupl:2,get_example_tl:[8,15,16,21,22],git:19,github:19,given:[2,6,14,22],gmst:[2,22],goe:22,good:14,gpl:20,granular:[6,22],gravit:[10,22],great:19,greenwhich:2,hand:22,happen:[6,8,19],has:[4,8,9,14,19,22],have:[2,5,19,22],heavi:2,help:19,helper:22,here:[19,22],higher:22,hold:[0,1,3,4,22],home:19,horizont:[2,22],hour:[2,14,22],how:[6,8,12,19,22],howev:[1,4,19,21,22],hst:[5,6,7,15,16,21,22],hst_tle:[5,6,21,22],http:[5,10,12,19,21,22],idx:[5,22],ignor:2,implement:22,inclin:[5,14,22],inclination_deg:14,includ:[8,10,15,16,19,22],incompat:19,index:19,influenc:22,info:12,inform:[1,5,22],init:2,input:[8,22],instal:18,instanc:[2,6,8],instead:[6,8,19],instruct:19,int_design:5,interest:[6,8],interfac:[4,8,9,21],intern:[2,3,4,5,6,18,22],interplai:22,issu:19,its:22,itself:20,januari:[2,22],julian:[2,6,8,22],jupyt:[18,21],just:22,kei:[8,21,22],keplarian:[14,22],keyword:12,known:[18,22],kwarg:12,larg:[5,8,19,21],larger:6,last:[5,6,8,21,22],lat:[0,8,21],lat_deg:[0,3,4,6,21,22],later:[6,19,21,22],latest:22,latitud:[0,3,4,22],latter:19,launch:5,lazi:[6,22],lazili:6,ldflag:19,lead:19,least:[5,22],leav:12,len:[5,22],length:[8,22],less:[6,22],let:22,level:22,lgomp:19,lib:19,libc:19,librari:[6,8,18,20],like:[6,7,10,14,15,16,19,21,22],line:[5,7,10,13,14,15,16,18,19,20,21,22],line_on:5,line_two:5,linear:2,link:19,linspac:[8,21,22],linux:19,list:[5,8,12,15,16,21,22],lmst:[2,22],loc:[3,4,6,21,22],local:[2,19],locat:[0,1,3,4,6,8,12,21,22],lon:[0,8,21,22],lon_deg:[0,3,4,6,21,22],longitud:[0,2,3,4,22],look:[6,22],loop:[9,22],lot:[18,22],low:[5,22],machin:[12,19],mai:[12,19],main:12,make:[8,18,19,22],mandatori:19,mani:[5,8,12,21,22],manner:[8,21],manual:[2,18],mark:12,mass:10,maximum:11,mean:[2,5,10,14,19,22],mean_anomali:[5,14],mean_anomaly_deg:14,mean_mot:[5,10,14],mean_motion_dt2:5,mean_motion_dt6:5,mean_motion_per_dai:14,meant:9,mention:[2,22],mess:19,messag:19,method:[2,3,5,6,12,22],micro:[2,22],microsecond:2,minim:21,minut:[2,6,21,22],mjd:[2,6,8,9,14,21,22],mjd_cache_resolut:[6,22],mjd_epoch:14,mjd_resolut:6,model:22,modifi:[2,6,8,22],moment:21,month:2,more:[6,19,22],mortem:12,most:[8,22],motion:[5,10,14,22],mu_km3_s2:10,much:19,multi:[18,22],multipl:12,must:[2,8,12,19],mysat:14,name:[5,12,14,15,16,22],nan:[6,8],nasa:22,ndarrai:8,necessari:[5,19],need:[2,6,19,21,22],newaxi:[8,21,22],newli:[6,22],next:[2,5,14,22],nhst:[7,22],node:[5,14,22],nomin:10,non:9,none:[2,3,6,8,9,12],norad:[5,21,22],normal:12,note:[1,2,3,4,5,10,11,14,19,22],notebook:[18,21],noth:12,nov:7,now:[2,6,22],nthread:11,numba:[18,22],number:[2,5,8,11,12,14,21,22],numpi:[8,19,21,22],object:[0,1,2,3,4,5,6,8,16,21,22],obs:[4,6,21,22],observ:[1,2,4,6,8,9,21,22],observer_longitud:[2,22],obslon_deg:2,obtain:[5,19,22],odd:4,off:12,often:[2,5,6,8,19,22],omp_num_thread:[8,11],on_error:[6,8,9],onboard:22,onc:[5,8,22],one:[2,5,6,8,17,21,22],ones:12,onli:[1,2,3,5,6,8,9,12,19,22],open:[12,20],open_fil:12,openmp:[8,18,19,22],opt:19,option:[6,8,10,12,19],orbit:[5,14,21,22],org:[10,12],orient:21,other:[5,19,22],otherwis:19,out:19,outdat:[5,22],outer:22,output:[8,12,22],over:[21,22],overwrit:19,owing:22,own:19,pack:8,packag:[12,18,19,20],pair:21,parallel:[8,9,12,21,22],paramet:[0,1,2,3,4,5,6,8,10,11,12,13,14,15,16,22],pars:[5,10,15,16,22],parti:19,particular:[3,22],partli:20,pass:[4,12],pastebin:12,path:12,pdb:12,pep8:12,per:[5,10,14,15,16,22],perform:[6,8,21,22],perige:[5,22],permissionerror:19,pertub:22,perturb:22,physic:22,piec:5,platform:[18,22],pleas:19,plu:22,plugin:12,point:[2,19,22],posit:[1,2,6,8,18,20,21,22],possibl:[0,1,2,3,4,19,21,22],post:12,power:[18,20,22],practic:[5,22],prefer:19,previou:6,print:[2,5,8,19,21,22],probabl:[2,8,21,22],problem:19,process:[6,8,18,22],produc:22,product:22,propagate_mani:[9,21,22],properti:[0,1,2,3,4,21,22],provid:[12,17,18,19,22],psutil:12,publish:[20,22],purpos:7,pyarg:19,pycoordgeodet:[3,4,6,21],pycoordtopocentr:[6,8,21],pydatetim:[3,5,6,14,21],pydt:[2,3,6,14,21,22],pyeci:[4,6,8],pyobserv:[1,6,8,21],pypi:19,pytest:[12,19],python:[2,6,8,9,17,18,19,22],pytl:[6,8,16,21],queri:[2,5,6,8,21,22],quick:18,quickli:[5,22],r_earth_km:10,raan:[5,14],raan_deg:14,radiu:10,rais:[6,8,9],rang:[1,5,22],rate:[1,22],reach:22,read:[3,19,22],readonli:3,realli:14,reason:22,recommend:19,ref:22,refer:1,rel:[1,12,22],relat:[19,22],remot:12,remote_data:12,repeat:12,replac:19,report:19,repositori:19,request:[5,6,8,21,22],requir:12,resolut:[6,22],respect:8,result:[6,8,21,22],rev_numb:5,revolut:[5,10,14],rhode:[18,22],right:[5,14,22],risk:19,rotat:22,routin:[5,22],rpath:19,rst:12,rule:[8,21,22],run:[12,19],runtimeerror:[6,8],same:[8,9,12,22],sat:[6,21,22],sat_nam:14,sat_nr:14,satellit:[1,2,5,8,10,14,18,20,21],satellite_mean_mot:14,scalar:8,scale:2,scienc:[5,7,21,22],second:[2,5,22],section:22,see:[0,1,2,3,4,5,6,8,10,14,19],self:[2,3,5,6],sep:[5,22],separ:12,set:[2,3,4,5,6,8,11,12,19,22],set_num_thread:8,setuptool:19,sever:[2,22],sgp4:[0,1,2,3,4,5,8,18,21],sgp4lib:[18,20],sgp:[6,8],shape:[8,21,22],should:[5,12,19,22],sider:2,similar:[18,22],simpl:[14,17],simpler:19,simpli:19,simplifi:22,sinc:[2,19,22],singl:[8,12],six:[5,22],skip:[12,21,22],skip_doc:12,slow:9,solar:22,some:[19,22],sometim:19,soon:19,sort:[8,21,22],sourc:[5,7,20,22],specif:[12,22],specifi:[12,22],speed:[18,22],split:[5,15,22],sporad:12,stai:19,standard:19,start:22,stdlib:19,step:[8,21,22],still:22,store:[2,3,5,22],str:[5,6,7,8,12,13,14,15,16],straightforward:[0,1,3,4,22],strang:[2,14,22],strict:19,string:[5,7,10,12,13,14,15,16,21,22],strongli:[6,8],struct:[0,1],structur:22,succe:19,sudo:19,suggest:[5,22],suit:[12,19],suitabl:19,summari:[0,1,2,3,4,5,6],support:19,suppress:[6,8],surfac:22,system:[4,19,22],tar:19,task:2,templat:[18,20],term:5,test:[7,9,22],test_path:12,text:[5,7,10,15,16,21,22],than:[6,22],thei:[10,22],them:[8,14,21,22],thi:[1,2,4,6,7,8,9,10,11,12,14,15,16,18,19,21,22],thin:[0,1,2,3,4,5,22],thing:[19,22],think:22,third:[19,22],thread:11,three:[2,5,14,15,16,21,22],thrown:[6,8],thu:[1,22],tick:[2,22],ticket:19,time:[2,3,4,5,6,8,12,14,18,21,22],timescal:2,timestamp:6,timezon:[2,22],tle:[2,5,6,7,8,9,10,13,14,15,16,18,20,21,22],tle_epoch:2,tle_lin:[13,14],tle_list:[5,15,16,21,22],tle_str:5,tle_text:[7,8,15,16,22],tle_tupl:[14,15,16],tle_tuples_from_text:[7,21,22],tles_from_text:[8,22],todo:22,tool:[19,22],topo:[1,6,8,21,22],topo_po:[6,21,22],topocentr:[1,6,8,21,22],tour:18,toward:19,tox:19,tracker:19,tricki:19,trigger:[6,22],troubl:19,tupl:[5,14,15,21,22],turn:12,tutori:[18,21],two:[2,5,14,18,19,20,21,22],txt:[5,7,21,22],type:2,typic:[6,22],under:20,underli:[6,8,22],unicod:[6,8,9,15,16],unless:19,unsign:2,updat:[3,19,22],upgrad:19,upload:12,url:[5,21,22],use:[2,5,6,8,11,12,14,18,19,21,22],used:[2,5,6,8,14,22],useful:[1,2,12,21,22],user:[8,19],uses:[18,22],using:[0,1,2,3,4,19,22],usr:19,usual:[4,6,8,22],utc:[2,3,5,14,22],util:[8,12,19,22],v_x:8,v_y:8,v_z:8,valid:14,valu:[6,8],vari:22,variabl:[2,8,11,19],variou:[8,22],vector:[6,8],vel:[3,6,21,22],velic:8,veloc:[3,6,8,21,22],verbos:12,veri:[2,14,22],version:[9,19],via:[0,1,2,3,4,6,8,12,17,18,19,21,22],virtualenv:19,visual:19,wai:19,want:[13,19,21],warner:[18,20,22],websit:21,well:[18,22],wgs72:[10,22],wgs84:22,what:14,wheel:19,when:12,whether:[8,12],which:[1,2,5,6,7,8,18,19,20,21,22],wide:19,wiki:10,wikipedia:[2,5,10,14],work:[6,8,18,19,21,22],would:[2,6,14,22],wrapper:[0,1,2,3,4,5,18,20],write:19,xdist:12,year:[2,5,14,22],you:[13,19,22],your:19,zero:[2,4,22],zhangzheng:[7,15,16,22],zip:[5,22]},titles:["PyCoordGeodetic","PyCoordTopocentric","PyDateTime","PyEci","PyObserver","PyTle","Satellite","get_example_tles","propagate_many","propagate_many_slow","satellite_mean_motion","set_num_threads","test","tle_checksum","tle_linestrings_from_orbital_parameters","tle_tuples_from_text","tles_from_text","Importing cysgp4","cysgp4 Documentation","Installation","Licenses","Cysgp4 quick tour","Cysgp4 user manual"],titleterms:{"class":22,"function":22,"import":17,Using:[19,22],acknowledg:18,also:22,anaconda:19,api:22,batch:22,benchmark:22,calcul:22,clang:19,cysgp4:[17,18,19,21,22],document:18,from:19,gcc:19,get:18,get_example_tl:7,instal:19,interfac:22,introduct:22,librari:22,licens:[18,20],llvm:19,maco:19,manual:22,option:22,packag:22,pip:19,propagate_mani:8,propagate_many_slow:9,pycoordgeodet:[0,22],pycoordtopocentr:[1,22],pydatetim:[2,22],pyeci:[3,22],pyobserv:[4,22],pytl:[5,22],quick:21,refer:22,requir:19,satellit:[6,22],satellite_mean_mot:10,see:22,set_num_thread:11,sgp4:22,sourc:19,start:18,test:[12,19],tle_checksum:13,tle_linestrings_from_orbital_paramet:14,tle_tuples_from_text:15,tles_from_text:16,tour:21,user:[18,22],window:19,wrapper:22}})